format  = 'OEF1.1'       ! file format
rectype = 'ML'           ! record type (1L/ML)
refsys  = ECLM J2000     ! default reference system
END_OF_HEADER
6825
! Equinoctial elements: a, e*sin(LP), e*cos(LP), tan(i/2)*sin(LN), tan(i/2)*cos(LN), mean long.
 EQU   2.16752255118343E+00  -0.009939277080041   0.010543020739494    0.005641901263554    0.046877562378103  64.1211102130274
 MJD     54600.000000000 TDT
 MAG  13.599  0.150
! RMS    1.76773E-08   6.74092E-08   1.20297E-07   6.50410E-08   1.12293E-07   9.26049E-06
! EIG   1.22739E-08   6.14245E-08   6.31937E-08   1.14195E-07   1.21920E-07   1.62693E-07
! WEA   0.07630  -0.08851  -0.04791  -0.01957  -0.00205  -0.99180
 COV   3.124886789265777E-16 -2.825476079410816E-17 -2.225645927312789E-16
 COV  -1.513699664046659E-18  7.069235701252266E-18 -1.145331706841187E-13
 COV   4.543994679049250E-15  2.089684793140185E-15  3.229208032786579E-18
 COV  -5.445361028858571E-17  1.061973316620236E-13  1.447142848321315E-14
 COV  -4.058128957406414E-17 -1.594736474801446E-16  2.160434220575652E-14
 COV   4.230334351859420E-15  1.989722907348832E-15  2.499003815144986E-14
 COV   1.260981786738051E-14  1.447046907177311E-16  8.575675328208371E-11
 NOR   6.585917077278110E+15 -2.260362583096018E+14  1.203104072341428E+14
 NOR  -5.218538087332772E+13  4.983717798688903E+12  9.060680923188080E+12
 NOR   2.505851339506812E+14 -3.874946847882102E+13  2.785078966216455E+12
 NOR   2.862378506376365E+11 -6.032481854299257E+11  7.627157516040230E+13
 NOR  -7.110942650476295E+11  8.398369772357643E+11  1.896582306844366E+11
 NOR   2.562328094008422E+14 -4.039739310850252E+13 -1.475660384937481E+11
 NOR   8.568651454787859E+13  1.771746569373415E+10  2.450418722376068E+10
